ONEWEB-0588             
1 55153U 23004P   25229.90523169  .00000159  00000+0  37056-3 0  9991
2 55153  87.9131  35.7280 0001571 107.1023 253.0281 13.18687865129728
ONEWEB-0598             
1 55154U 23004Q   25229.88060213  .00000471  00000+0  12943-2 0  9999
2 55154  87.8782  81.5277 0001232  68.2002 291.9257 13.11417030126148
ONEWEB-0599             
1 55155U 23004R   25229.58396255  .00000095  00000+0  21172-3 0  9992
2 55155  87.9026  66.2831 0001731  81.5098 278.6230 13.17650706127503
ONEWEB-0614             
1 55156U 23004S   25229.87551595  .00000381  00000+0  10402-2 0  9996
2 55156  87.8783  81.5386 0001823  94.2076 265.9260 13.11418170126082
ONEWEB-0616             
1 55157U 23004T   25229.92990864  .00000021  00000+0  20133-4 0  9994
2 55157  87.9032  66.2047 0002380  63.8902 296.2475 13.17648622127768
ONEWEB-0617             
1 55158U 23004U   25229.86363948 -.00000117  00000+0 -36458-3 0  9999
2 55158  87.8781  81.5194 0001611  95.4934 264.6378 13.11418010126102
ONEWEB-0618             
1 55159U 23004V   25229.74200862  .00001032  00000+0  17600-3 0  9995
2 55159  86.9093 299.6095 0013451 341.6878  18.3851 14.67973878136593
ONEWEB-0619             
1 55160U 23004W   25229.81010314 -.00000041  00000+0 -13916-3 0  9993
2 55160  87.9022  66.2042 0002276  91.2022 268.9370 13.17650132127644
